{
  "type": "FeatureCollection",
  "features": [
    {
      "type": "Feature",
      "properties": {
        "norad_id": 44333,
        "name": "AT&T T-16",
        "group": "intelsat",
        "lat": -0.0015233464545249113,
        "lon": -151.84620085657306,
        "alt_km": 35784.08882078075,
        "timestamp": "2025-12-15T14:57:57.507973+00:00",
        "meta_object_name": "AT&T T-16",
        "meta_object_id": "2019-034A",
        "meta_epoch": "2025-12-14T21:29:59.762112",
        "meta_mean_motion": 1.00270833,
        "meta_eccentricity": 9.964e-05,
        "meta_inclination": 0.0252,
        "meta_ra_of_asc_node": 69.3394,
        "meta_arg_of_pericenter": 81.8643,
        "meta_mean_anomaly": 154.2461,
        "meta_ephemeris_type": 0,
        "meta_classification_type": "U",
        "meta_norad_cat_id": 44333,
        "meta_element_set_no": 999,
        "meta_rev_at_epoch": 2378,
        "meta_bstar": 0,
        "meta_mean_motion_dot": -9.5e-07,
        "meta_mean_motion_ddot": 0,
        "tle_line1": "1 44333U 19034A   25348.89583058 -.00000095  00000+0  00000+0 0  9995",
        "tle_line2": "2 44333   0.0252  69.3394 0000996  81.8643 154.2461  1.00270833 23783"
      },
      "geometry": {
        "type": "Point",
        "coordinates": [
          -151.84620085657306,
          -0.0015233464545249113
        ]
      }
    },
    {
      "type": "Feature",
      "properties": {
        "norad_id": 44476,
        "name": "INTELSAT 39 (IS-39)",
        "group": "intelsat",
        "lat": 0.02647702602584619,
        "lon": 10.935006009963484,
        "alt_km": 35789.563981670224,
        "timestamp": "2025-12-15T14:57:57.507983+00:00",
        "meta_object_name": "INTELSAT 39 (IS-39)",
        "meta_object_id": "2019-049B",
        "meta_epoch": "2025-12-14T22:42:38.818368",
        "meta_mean_motion": 1.00270878,
        "meta_eccentricity": 0.00012415,
        "meta_inclination": 0.0196,
        "meta_ra_of_asc_node": 330.0545,
        "meta_arg_of_pericenter": 169.955,
        "meta_mean_anomaly": 346.4542,
        "meta_ephemeris_type": 0,
        "meta_classification_type": "U",
        "meta_norad_cat_id": 44476,
        "meta_element_set_no": 999,
        "meta_rev_at_epoch": 2328,
        "meta_bstar": 0,
        "meta_mean_motion_dot": 5.4e-07,
        "meta_mean_motion_ddot": 0,
        "tle_line1": "1 44476U 19049B   25348.94628262  .00000054  00000+0  00000+0 0  9996",
        "tle_line2": "2 44476   0.0196 330.0545 0001241 169.9550 346.4542  1.00270878 23282"
      },
      "geometry": {
        "type": "Point",
        "coordinates": [
          10.935006009963484,
          0.02647702602584619
        ]
      }
    },
    {
      "type": "Feature",
      "properties": {
        "norad_id": 46114,
        "name": "GALAXY 30 (G-30)",
        "group": "intelsat",
        "lat": -0.011066420918774673,
        "lon": -176.01479992276845,
        "alt_km": 35784.21788191724,
        "timestamp": "2025-12-15T14:57:57.507994+00:00",
        "meta_object_name": "GALAXY 30 (G-30)",
        "meta_object_id": "2020-056C",
        "meta_epoch": "2025-12-14T16:14:52.443168",
        "meta_mean_motion": 1.00271715,
        "meta_eccentricity": 0.00021307,
        "meta_inclination": 0.0181,
        "meta_ra_of_asc_node": 355.3137,
        "meta_arg_of_pericenter": 267.0636,
        "meta_mean_anomaly": 299.9386,
        "meta_ephemeris_type": 0,
        "meta_classification_type": "U",
        "meta_norad_cat_id": 46114,
        "meta_element_set_no": 999,
        "meta_rev_at_epoch": 1944,
        "meta_bstar": 0,
        "meta_mean_motion_dot": 5.6e-07,
        "meta_mean_motion_ddot": 0,
        "tle_line1": "1 46114U 20056C   25348.67699587  .00000056  00000+0  00000+0 0  9997",
        "tle_line2": "2 46114   0.0181 355.3137 0002130 267.0636 299.9386  1.00271715 19449"
      },
      "geometry": {
        "type": "Point",
        "coordinates": [
          -176.01479992276845,
          -0.011066420918774673
        ]
      }
    },
    {
      "type": "Feature",
      "properties": {
        "norad_id": 54026,
        "name": "GALAXY 33 (G-33)",
        "group": "intelsat",
        "lat": -0.013431806689706685,
        "lon": 175.9883943233143,
        "alt_km": 35784.52224498128,
        "timestamp": "2025-12-15T14:57:57.508004+00:00",
        "meta_object_name": "GALAXY 33 (G-33)",
        "meta_object_id": "2022-128A",
        "meta_epoch": "2025-12-14T16:12:37.658304",
        "meta_mean_motion": 1.00272574,
        "meta_eccentricity": 0.00018603,
        "meta_inclination": 0.0104,
        "meta_ra_of_asc_node": 328.9478,
        "meta_arg_of_pericenter": 287.8681,
        "meta_mean_anomaly": 296.9341,
        "meta_ephemeris_type": 0,
        "meta_classification_type": "U",
        "meta_norad_cat_id": 54026,
        "meta_element_set_no": 999,
        "meta_rev_at_epoch": 1189,
        "meta_bstar": 0,
        "meta_mean_motion_dot": 9.8e-07,
        "meta_mean_motion_ddot": 0,
        "tle_line1": "1 54026U 22128A   25348.67543586  .00000098  00000+0  00000+0 0  9993",
        "tle_line2": "2 54026   0.0104 328.9478 0001860 287.8681 296.9341  1.00272574 11891"
      },
      "geometry": {
        "type": "Point",
        "coordinates": [
          175.9883943233143,
          -0.013431806689706685
        ]
      }
    },
    {
      "type": "Feature",
      "properties": {
        "norad_id": 54027,
        "name": "GALAXY 34 (G-34)",
        "group": "intelsat",
        "lat": -0.025652661149175398,
        "lon": -179.95735968137467,
        "alt_km": 35785.008259984104,
        "timestamp": "2025-12-15T14:57:57.508015+00:00",
        "meta_object_name": "GALAXY 34 (G-34)",
        "meta_object_id": "2022-128B",
        "meta_epoch": "2025-12-14T16:13:45.050304",
        "meta_mean_motion": 1.00267036,
        "meta_eccentricity": 0.0001377,
        "meta_inclination": 0.0264,
        "meta_ra_of_asc_node": 324.1317,
        "meta_arg_of_pericenter": 282.2143,
        "meta_mean_anomaly": 311.7522,
        "meta_ephemeris_type": 0,
        "meta_classification_type": "U",
        "meta_norad_cat_id": 54027,
        "meta_element_set_no": 999,
        "meta_rev_at_epoch": 1206,
        "meta_bstar": 0,
        "meta_mean_motion_dot": 0,
        "meta_mean_motion_ddot": 0,
        "tle_line1": "1 54027U 22128B   25348.67621586  .00000000  00000+0  00000+0 0  9994",
        "tle_line2": "2 54027   0.0264 324.1317 0001377 282.2143 311.7522  1.00267036 12068"
      },
      "geometry": {
        "type": "Point",
        "coordinates": [
          -179.95735968137467,
          -0.025652661149175398
        ]
      }
    },
    {
      "type": "Feature",
      "properties": {
        "norad_id": 54243,
        "name": "GALAXY 31 (G-31)",
        "group": "intelsat",
        "lat": -0.013139132445522322,
        "lon": -172.02332982080506,
        "alt_km": 35786.32399420978,
        "timestamp": "2025-12-15T14:57:57.508025+00:00",
        "meta_object_name": "GALAXY 31 (G-31)",
        "meta_object_id": "2022-153A",
        "meta_epoch": "2025-12-14T21:24:15.312096",
        "meta_mean_motion": 1.00271102,
        "meta_eccentricity": 0.00014922,
        "meta_inclination": 0.013,
        "meta_ra_of_asc_node": 353.12,
        "meta_arg_of_pericenter": 285.8278,
        "meta_mean_anomaly": 4.9116,
        "meta_ephemeris_type": 0,
        "meta_classification_type": "U",
        "meta_norad_cat_id": 54243,
        "meta_element_set_no": 999,
        "meta_rev_at_epoch": 528,
        "meta_bstar": 0,
        "meta_mean_motion_dot": 0,
        "meta_mean_motion_ddot": 0,
        "tle_line1": "1 54243U 22153A   25348.89184389  .00000000  00000+0  00000+0 0  9991",
        "tle_line2": "2 54243   0.0130 353.1200 0001492 285.8278   4.9116  1.00271102  5284"
      },
      "geometry": {
        "type": "Point",
        "coordinates": [
          -172.02332982080506,
          -0.013139132445522322
        ]
      }
    },
    {
      "type": "Feature",
      "properties": {
        "norad_id": 54244,
        "name": "GALAXY 32 (G-32)",
        "group": "intelsat",
        "lat": -0.028926551080174043,
        "lon": -142.02521046498757,
        "alt_km": 35787.67287418459,
        "timestamp": "2025-12-15T14:57:57.508036+00:00",
        "meta_object_name": "GALAXY 32 (G-32)",
        "meta_object_id": "2022-153B",
        "meta_epoch": "2025-12-14T11:16:28.521120",
        "meta_mean_motion": 1.00271615,
        "meta_eccentricity": 0.00025826,
        "meta_inclination": 0.0101,
        "meta_ra_of_asc_node": 332.4414,
        "meta_arg_of_pericenter": 343.5961,
        "meta_mean_anomaly": 205.4705,
        "meta_ephemeris_type": 0,
        "meta_classification_type": "U",
        "meta_norad_cat_id": 54244,
        "meta_element_set_no": 999,
        "meta_rev_at_epoch": 1129,
        "meta_bstar": 0,
        "meta_mean_motion_dot": -1.56e-06,
        "meta_mean_motion_ddot": 0,
        "tle_line1": "1 54244U 22153B   25348.46977455 -.00000156  00000+0  00000+0 0  9992",
        "tle_line2": "2 54244   0.0101 332.4414 0002582 343.5961 205.4705  1.00271615 11291"
      },
      "geometry": {
        "type": "Point",
        "coordinates": [
          -142.02521046498757,
          -0.028926551080174043
        ]
      }
    }
  ]
}